XRISM                   
1 57800U 23137A   26074.18761664  .00006235  00000+0  35278-3 0  9997
2 57800  31.0008 248.1007 0007935  94.0094 266.1451 15.11567104138622
ACS3                    
1 59588U 24077B   26074.25774333  .00025857  00000+0  20625-1 0  9990
2 59588  97.2037  14.1178 0064607  63.2080 297.5673 13.89881559 94974
SZ-21 MODULE            
1 66515U 25246C   26073.59336335  .00048778  00000+0  41125-3 0  9996
2 66515  41.4735 173.1648 0000910 309.7124  50.3637 15.68965402 18846
